start=new Date('2022-09-23T00:00:00.000Z').valueOf();
sats=[{"MEAN_MOTION_DDOT":"0.0000000000000","TLE_LINE2":"2 46533  53.0550  90.1939 0001563  66.8080 293.3073 15.06396503109011","OBJECT_NAME":"STARLINK-1648","REV_AT_EPOCH":"10901","INCLINATION":"53.0550","OBJECT_TYPE":"PAYLOAD","ELEMENT_SET_NO":"999","TIME_SYSTEM":"UTC","MEAN_MOTION":"15.06396503","LAUNCH_DATE":"2020-10-06","CLASSIFICATION_TYPE":"U","RCS_SIZE":"LARGE","SEMIMAJOR_AXIS":"6925.359","MEAN_ELEMENT_THEORY":"SGP4","EPHEMERIS_TYPE":"0","TLE_LINE1":"1 46533U 20070B   22265.85257592  .00001132  00000-0  94882-4 0  9992","SITE":"AFETR","DECAY_DATE":null,"PERIOD":"95.592","MEAN_ANOMALY":"293.3073","CENTER_NAME":"EARTH","RA_OF_ASC_NODE":"90.1939","MEAN_MOTION_DOT":"0.00001132","OBJECT_ID":"2020-070B","REF_FRAME":"TEME","APOAPSIS":"548.307","GP_ID":"213256326","EPOCH":"2022-09-22T20:27:42.559488","NORAD_CAT_ID":"46533","ECCENTRICITY":"0.00015630","FILE":"3580594","ARG_OF_PERICENTER":"66.8080","PERIAPSIS":"546.142","COUNTRY_CODE":"US","BSTAR":"0.00009488200000"},{"EPHEMERIS_TYPE":"0","SEMIMAJOR_AXIS":"6925.325","MEAN_ELEMENT_THEORY":"SGP4","LAUNCH_DATE":"2020-10-06","RCS_SIZE":"LARGE","CLASSIFICATION_TYPE":"U","TIME_SYSTEM":"UTC","MEAN_MOTION":"15.06407829","MEAN_MOTION_DDOT":"0.0000000000000","TLE_LINE2":"2 46534  53.0535  90.2904 0001570  68.1319 291.9836 15.06407829109011","OBJECT_NAME":"STARLINK-1659","OBJECT_TYPE":"PAYLOAD","ELEMENT_SET_NO":"999","INCLINATION":"53.0535","REV_AT_EPOCH":"10901","PERIAPSIS":"546.102","COUNTRY_CODE":"US","ARG_OF_PERICENTER":"68.1319","BSTAR":"0.00033709000000","EPOCH":"2022-09-22T20:01:09.746976","GP_ID":"213256576","FILE":"3580594","NORAD_CAT_ID":"46534","ECCENTRICITY":"0.00015700","MEAN_MOTION_DOT":"0.00004744","OBJECT_ID":"2020-070C","RA_OF_ASC_NODE":"90.2904","REF_FRAME":"TEME","APOAPSIS":"548.277","SITE":"AFETR","TLE_LINE1":"1 46534U 20070C   22265.83414059  .00004744  00000-0  33709-3 0  9996","DECAY_DATE":null,"PERIOD":"95.592","MEAN_ANOMALY":"291.9836","CENTER_NAME":"EARTH"},{"APOAPSIS":"548.087","REF_FRAME":"TEME","RA_OF_ASC_NODE":"90.3445","OBJECT_ID":"2020-070D","MEAN_MOTION_DOT":"-0.00000581","CENTER_NAME":"EARTH","MEAN_ANOMALY":"284.4105","DECAY_DATE":null,"PERIOD":"95.592","TLE_LINE1":"1 46535U 20070D   22265.82308712 -.00000581  00000-0 -20108-4 0  9991","SITE":"AFETR","BSTAR":"-0.00002010800000","ARG_OF_PERICENTER":"75.7025","COUNTRY_CODE":"US","PERIAPSIS":"546.325","ECCENTRICITY":"0.00012720","NORAD_CAT_ID":"46535","FILE":"3580532","EPOCH":"2022-09-22T19:45:14.727168","GP_ID":"213236309","MEAN_MOTION":"15.06402597","TIME_SYSTEM":"UTC","INCLINATION":"53.0556","REV_AT_EPOCH":"10902","ELEMENT_SET_NO":"999","OBJECT_TYPE":"PAYLOAD","OBJECT_NAME":"STARLINK-1663","TLE_LINE2":"2 46535  53.0556  90.3445 0001272  75.7025 284.4105 15.06402597109027","MEAN_MOTION_DDOT":"0.0000000000000","MEAN_ELEMENT_THEORY":"SGP4","SEMIMAJOR_AXIS":"6925.341","EPHEMERIS_TYPE":"0","CLASSIFICATION_TYPE":"U","RCS_SIZE":"LARGE","LAUNCH_DATE":"2020-10-06"},{"TIME_SYSTEM":"UTC","MEAN_MOTION":"15.06395762","REV_AT_EPOCH":"10900","INCLINATION":"53.0557","OBJECT_TYPE":"PAYLOAD","ELEMENT_SET_NO":"999","MEAN_MOTION_DDOT":"0.0000000000000","TLE_LINE2":"2 46537  53.0557  90.5165 0001185  72.8207 287.2912 15.06395762109004","OBJECT_NAME":"STARLINK-1672","SEMIMAJOR_AXIS":"6925.362","MEAN_ELEMENT_THEORY":"SGP4","EPHEMERIS_TYPE":"0","LAUNCH_DATE":"2020-10-06","CLASSIFICATION_TYPE":"U","RCS_SIZE":"LARGE","REF_FRAME":"TEME","APOAPSIS":"548.047","RA_OF_ASC_NODE":"90.5165","MEAN_MOTION_DOT":"0.00000556","OBJECT_ID":"2020-070F","PERIOD":"95.592","DECAY_DATE":null,"CENTER_NAME":"EARTH","MEAN_ANOMALY":"287.2912","TLE_LINE1":"1 46537U 20070F   22265.78254227  .00000556  00000-0  56237-4 0  9991","SITE":"AFETR","BSTAR":"0.00005623700000","ARG_OF_PERICENTER":"72.8207","PERIAPSIS":"546.406","COUNTRY_CODE":"US","NORAD_CAT_ID":"46537","ECCENTRICITY":"0.00011850","FILE":"3580594","EPOCH":"2022-09-22T18:46:51.652128","GP_ID":"213258069"},{"COUNTRY_CODE":"US","PERIAPSIS":"546.229","ARG_OF_PERICENTER":"78.0909","BSTAR":"0.00003411700000","GP_ID":"213256819","EPOCH":"2022-09-22T19:50:34.241280","FILE":"3580594","ECCENTRICITY":"0.00015060","NORAD_CAT_ID":"46538","MEAN_MOTION_DOT":"0.00000226","OBJECT_ID":"2020-070G","RA_OF_ASC_NODE":"90.3162","APOAPSIS":"548.315","REF_FRAME":"TEME","SITE":"AFETR","TLE_LINE1":"1 46538U 20070G   22265.82678520  .00000226  00000-0  34117-4 0  9990","CENTER_NAME":"EARTH","MEAN_ANOMALY":"282.0249","PERIOD":"95.593","DECAY_DATE":null,"EPHEMERIS_TYPE":"0","MEAN_ELEMENT_THEORY":"SGP4","SEMIMAJOR_AXIS":"6925.407","RCS_SIZE":"LARGE","CLASSIFICATION_TYPE":"U","LAUNCH_DATE":"2020-10-06","MEAN_MOTION":"15.06380793","TIME_SYSTEM":"UTC","MEAN_MOTION_DDOT":"0.0000000000000","TLE_LINE2":"2 46538  53.0549  90.3162 0001506  78.0909 282.0249 15.06380793109009","OBJECT_NAME":"STARLINK-1678","ELEMENT_SET_NO":"999","OBJECT_TYPE":"PAYLOAD","INCLINATION":"53.0549","REV_AT_EPOCH":"10900"},{"TLE_LINE2":"2 46541  53.0556  70.7205 0001419  85.3933 274.7218 15.06397402109270","OBJECT_NAME":"STARLINK-1687","MEAN_MOTION_DDOT":"0.0000000000000","REV_AT_EPOCH":"10927","INCLINATION":"53.0556","ELEMENT_SET_NO":"999","OBJECT_TYPE":"PAYLOAD","MEAN_MOTION":"15.06397402","TIME_SYSTEM":"UTC","CLASSIFICATION_TYPE":"U","RCS_SIZE":"LARGE","LAUNCH_DATE":"2020-10-06","MEAN_ELEMENT_THEORY":"SGP4","SEMIMAJOR_AXIS":"6925.357","EPHEMERIS_TYPE":"0","TLE_LINE1":"1 46541U 20070K   22265.74015337  .00000682  00000-0  64694-4 0  9995","SITE":"AFETR","CENTER_NAME":"EARTH","MEAN_ANOMALY":"274.7218","PERIOD":"95.592","DECAY_DATE":null,"RA_OF_ASC_NODE":"70.7205","MEAN_MOTION_DOT":"0.00000682","OBJECT_ID":"2020-070K","APOAPSIS":"548.204","REF_FRAME":"TEME","GP_ID":"213257069","EPOCH":"2022-09-22T17:45:49.251168","ECCENTRICITY":"0.00014190","NORAD_CAT_ID":"46541","FILE":"3580594","ARG_OF_PERICENTER":"85.3933","COUNTRY_CODE":"US","PERIAPSIS":"546.239","BSTAR":"0.00006469400000"},{"EPHEMERIS_TYPE":"0","MEAN_ELEMENT_THEORY":"SGP4","SEMIMAJOR_AXIS":"6925.367","RCS_SIZE":"LARGE","CLASSIFICATION_TYPE":"U","LAUNCH_DATE":"2020-10-06","MEAN_MOTION":"15.06393860","TIME_SYSTEM":"UTC","MEAN_MOTION_DDOT":"0.0000000000000","TLE_LINE2":"2 46542  53.0548  90.7064 0001170  65.8636 294.2475 15.06393860108998","OBJECT_NAME":"STARLINK-1692","ELEMENT_SET_NO":"999","OBJECT_TYPE":"PAYLOAD","REV_AT_EPOCH":"10899","INCLINATION":"53.0548","COUNTRY_CODE":"US","PERIAPSIS":"546.422","ARG_OF_PERICENTER":"65.8636","BSTAR":"0.00001415200000","EPOCH":"2022-09-22T17:48:28.456992","GP_ID":"213257819","FILE":"3580594","ECCENTRICITY":"0.00011700","NORAD_CAT_ID":"46542","OBJECT_ID":"2020-070L","MEAN_MOTION_DOT":"-0.00000071","RA_OF_ASC_NODE":"90.7064","APOAPSIS":"548.043","REF_FRAME":"TEME","SITE":"AFETR","TLE_LINE1":"1 46542U 20070L   22265.74199603 -.00000071  00000-0  14152-4 0  9992","CENTER_NAME":"EARTH","MEAN_ANOMALY":"294.2475","DECAY_DATE":null,"PERIOD":"95.593"},{"BSTAR":"-0.00007229800000","PERIAPSIS":"545.990","COUNTRY_CODE":"US","ARG_OF_PERICENTER":"86.4826","FILE":"3580536","NORAD_CAT_ID":"46543","ECCENTRICITY":"0.00018000","EPOCH":"2022-09-22T19:02:47.381280","GP_ID":"213236817","REF_FRAME":"TEME","APOAPSIS":"548.483","OBJECT_ID":"2020-070M","MEAN_MOTION_DOT":"-0.00001358","RA_OF_ASC_NODE":"90.4705","DECAY_DATE":null,"PERIOD":"95.593","MEAN_ANOMALY":"273.6369","CENTER_NAME":"EARTH","SITE":"AFETR","TLE_LINE1":"1 46543U 20070M   22265.79360395 -.00001358  00000-0 -72298-4 0  9991","EPHEMERIS_TYPE":"0","SEMIMAJOR_AXIS":"6925.371","MEAN_ELEMENT_THEORY":"SGP4","LAUNCH_DATE":"2020-10-06","RCS_SIZE":"LARGE","CLASSIFICATION_TYPE":"U","TIME_SYSTEM":"UTC","MEAN_MOTION":"15.06392622","OBJECT_TYPE":"PAYLOAD","ELEMENT_SET_NO":"999","INCLINATION":"53.0555","REV_AT_EPOCH":"10902","MEAN_MOTION_DDOT":"0.0000000000000","TLE_LINE2":"2 46543  53.0555  90.4705 0001800  86.4826 273.6369 15.06392622109029","OBJECT_NAME":"STARLINK-1693"},{"FILE":"3580536","ECCENTRICITY":"0.00014230","NORAD_CAT_ID":"46544","EPOCH":"2022-09-22T18:56:48.235488","GP_ID":"213236414","BSTAR":"0.00006541000000","COUNTRY_CODE":"US","PERIAPSIS":"546.214","ARG_OF_PERICENTER":"81.0065","CENTER_NAME":"EARTH","MEAN_ANOMALY":"279.1085","PERIOD":"95.592","DECAY_DATE":null,"SITE":"AFETR","TLE_LINE1":"1 46544U 20070N   22265.78944717  .00000693  00000-0  65410-4 0  9994","APOAPSIS":"548.185","REF_FRAME":"TEME","OBJECT_ID":"2020-070N","MEAN_MOTION_DOT":"0.00000693","RA_OF_ASC_NODE":"75.4991","CLASSIFICATION_TYPE":"U","RCS_SIZE":"LARGE","LAUNCH_DATE":"2020-10-06","EPHEMERIS_TYPE":"0","MEAN_ELEMENT_THEORY":"SGP4","SEMIMAJOR_AXIS":"6925.335","ELEMENT_SET_NO":"999","OBJECT_TYPE":"PAYLOAD","INCLINATION":"53.0552","REV_AT_EPOCH":"10922","MEAN_MOTION_DDOT":"0.0000000000000","TLE_LINE2":"2 46544  53.0552  75.4991 0001423  81.0065 279.1085 15.06404433109226","OBJECT_NAME":"STARLINK-1694","MEAN_MOTION":"15.06404433","TIME_SYSTEM":"UTC"},{"MEAN_MOTION":"15.06388528","TIME_SYSTEM":"UTC","TLE_LINE2":"2 46545  53.0541  90.3041 0001311  63.2316 296.8807 15.06388528109004","OBJECT_NAME":"STARLINK-1696","MEAN_MOTION_DDOT":"0.0000000000000","ELEMENT_SET_NO":"999","OBJECT_TYPE":"PAYLOAD","INCLINATION":"53.0541","REV_AT_EPOCH":"10900","EPHEMERIS_TYPE":"0","MEAN_ELEMENT_THEORY":"SGP4","SEMIMAJOR_AXIS":"6925.384","RCS_SIZE":"LARGE","CLASSIFICATION_TYPE":"U","LAUNCH_DATE":"2020-10-06","OBJECT_ID":"2020-070P","MEAN_MOTION_DOT":"-0.00000078","RA_OF_ASC_NODE":"90.3041","APOAPSIS":"548.157","REF_FRAME":"TEME","SITE":"AFETR","TLE_LINE1":"1 46545U 20070P   22265.83046577 -.00000078  00000-0  13630-4 0  9993","CENTER_NAME":"EARTH","MEAN_ANOMALY":"296.8807","PERIOD":"95.593","DECAY_DATE":null,"COUNTRY_CODE":"US","PERIAPSIS":"546.341","ARG_OF_PERICENTER":"63.2316","BSTAR":"0.00001363000000","EPOCH":"2022-09-22T19:55:52.242528","GP_ID":"213256577","FILE":"3580594","ECCENTRICITY":"0.00013110","NORAD_CAT_ID":"46545"}];
